IRIDIUM 39              
1 25042U 97069D   25074.56504243  .00001786  00000+0  46547-3 0  9991
2 25042  86.3864 251.2613 0015893 258.3628 101.5792 14.48985096435663
IRIDIUM 38              
1 25043U 97069E   25073.95455857  .00000997  00000+0  32348-3 0  9997
2 25043  86.3896 272.8176 0003740  69.2342 290.9257 14.37964357432416
IRIDIUM 42              
1 25077U 97077A   25073.91500536  .00000870  00000+0  29161-3 0  9993
2 25077  86.3904 278.8943 0002776  82.9180 277.2333 14.36212054427664
IRIDIUM 44              
1 25078U 97077B   25074.05430994  .00001101  00000+0  34284-3 0  9990
2 25078  86.3900 260.9884 0002229  39.7609 320.3753 14.40092052430182
IRIDIUM 45              
1 25104U 97082A   25074.52740294  .00031212  00000+0  12592-2 0  9998
2 25104  86.3545  93.2418 0124373 322.8555  36.4126 15.17721530438067
IRIDIUM 24              
1 25105U 97082B   25073.66222337  .00001007  00000+0  30120-3 0  9993
2 25105  86.3887 120.4091 0012626  40.1118 320.1011 14.41940775429593
IRIDIUM 51              
1 25262U 98018A   25074.54434049  .00041464  00000+0  11575-2 0  9993
2 25262  86.3816 101.9387 0098383 247.1477 111.9361 15.31732154432871
IRIDIUM 57              
1 25273U 98019B   25074.23105358  .00000969  00000+0  32840-3 0  9994
2 25273  86.4035 184.5890 0002178  93.9539 266.1906 14.35783249411516
